STARLINK-30305          
1 57775U 23134E   26068.36235210 -.00000642  00000+0 -13812-4 0  9990
2 57775  42.9993 196.5981 0001334 208.7239 151.3540 15.27572198139458
BANDWAGON-4 OBJECT P    
1 66306U 25248P   26067.98083108  .00022647  00000+0  92291-3 0  9996
2 66306  45.4037 295.4322 0012078 209.3167 150.7044 15.24098352 19290
